[{"OBJECT_NAME":"STARLINK-2503","OBJECT_ID":"2021-027BM","EPOCH":"2026-03-10T00:00:02.999808","MEAN_MOTION":15.12045111,"ECCENTRICITY":0.00018339,"INCLINATION":53.0753,"RA_OF_ASC_NODE":150.1568,"ARG_OF_PERICENTER":101.727,"MEAN_ANOMALY":130.0944,"EPHEMERIS_TYPE":0,"CLASSIFICATION_TYPE":"U","NORAD_CAT_ID":48151,"ELEMENT_SET_NO":999,"REV_AT_EPOCH":569,"BSTAR":0.0047324617,"MEAN_MOTION_DOT":0.00082958,"MEAN_MOTION_DDOT":0},{"OBJECT_NAME":"UMBRA-09","OBJECT_ID":"2024-149CB","EPOCH":"2026-03-09T19:52:12.515232","MEAN_MOTION":15.14785586,"ECCENTRICITY":0.0001111,"INCLINATION":97.6984,"RA_OF_ASC_NODE":154.5768,"ARG_OF_PERICENTER":266.3706,"MEAN_ANOMALY":93.7398,"EPHEMERIS_TYPE":0,"CLASSIFICATION_TYPE":"U","NORAD_CAT_ID":60541,"ELEMENT_SET_NO":999,"REV_AT_EPOCH":8566,"BSTAR":0.0012497074,"MEAN_MOTION_DOT":0.00023181,"MEAN_MOTION_DDOT":0}]
